{
  "type": "FeatureCollection",
  "features": [
    {
      "type": "Feature",
      "properties": {
        "norad_id": 30884,
        "name": "FENGYUN 1C DEB",
        "group": "fengyun-1c-debris",
        "lat": -18.360890139497084,
        "lon": -9.184268734788986,
        "alt_km": 612.6431201230562,
        "timestamp": "2025-12-19T08:58:49.617413+00:00",
        "meta_object_name": "FENGYUN 1C DEB",
        "meta_object_id": "1999-025AXW",
        "meta_epoch": "2025-12-16T17:30:34.092864",
        "meta_mean_motion": 14.73587602,
        "meta_eccentricity": 0.00664066,
        "meta_inclination": 98.8902,
        "meta_ra_of_asc_node": 344.942,
        "meta_arg_of_pericenter": 323.365,
        "meta_mean_anomaly": 36.3024,
        "meta_ephemeris_type": 0,
        "meta_classification_type": "U",
        "meta_norad_cat_id": 30884,
        "meta_element_set_no": 999,
        "meta_rev_at_epoch": 98720,
        "meta_bstar": 0.0016248792,
        "meta_mean_motion_dot": 0.00010908,
        "meta_mean_motion_ddot": 0,
        "tle_line1": "1 30884U 99025AXW 25350.72956126  .00010908  00000+0  16249-2 0  9992",
        "tle_line2": "2 30884  98.8902 344.9420 0066406 323.3650  36.3024 14.73587602987208"
      },
      "geometry": {
        "type": "Point",
        "coordinates": [
          -9.184268734788986,
          -18.360890139497084
        ]
      }
    },
    {
      "type": "Feature",
      "properties": {
        "norad_id": 30885,
        "name": "FENGYUN 1C DEB",
        "group": "fengyun-1c-debris",
        "lat": 10.06930124669577,
        "lon": 15.984333926661064,
        "alt_km": 695.6067308929105,
        "timestamp": "2025-12-19T08:58:49.617436+00:00",
        "meta_object_name": "FENGYUN 1C DEB",
        "meta_object_id": "1999-025AXX",
        "meta_epoch": "2025-12-18T08:09:53.663616",
        "meta_mean_motion": 14.49530378,
        "meta_eccentricity": 0.00533985,
        "meta_inclination": 99.0262,
        "meta_ra_of_asc_node": 193.2608,
        "meta_arg_of_pericenter": 202.3091,
        "meta_mean_anomaly": 335.1108,
        "meta_ephemeris_type": 0,
        "meta_classification_type": "U",
        "meta_norad_cat_id": 30885,
        "meta_element_set_no": 999,
        "meta_rev_at_epoch": 97058,
        "meta_bstar": 0.0020644444,
        "meta_mean_motion_dot": 8.017e-05,
        "meta_mean_motion_ddot": 0,
        "tle_line1": "1 30885U 99025AXX 25352.34020444  .00008017  00000+0  20644-2 0  9990",
        "tle_line2": "2 30885  99.0262 193.2608 0053398 202.3091 335.1108 14.49530378970582"
      },
      "geometry": {
        "type": "Point",
        "coordinates": [
          15.984333926661064,
          10.06930124669577
        ]
      }
    },
    {
      "type": "Feature",
      "properties": {
        "norad_id": 30886,
        "name": "FENGYUN 1C DEB",
        "group": "fengyun-1c-debris",
        "lat": 33.257017752760156,
        "lon": 72.75796019556819,
        "alt_km": 830.4479090205914,
        "timestamp": "2025-12-19T08:58:49.617455+00:00",
        "meta_object_name": "FENGYUN 1C DEB",
        "meta_object_id": "1999-025AXY",
        "meta_epoch": "2025-12-18T10:21:27.274752",
        "meta_mean_motion": 14.22825786,
        "meta_eccentricity": 0.00364438,
        "meta_inclination": 99.2096,
        "meta_ra_of_asc_node": 245.6653,
        "meta_arg_of_pericenter": 18.9046,
        "meta_mean_anomaly": 341.3475,
        "meta_ephemeris_type": 0,
        "meta_classification_type": "U",
        "meta_norad_cat_id": 30886,
        "meta_element_set_no": 999,
        "meta_rev_at_epoch": 96477,
        "meta_bstar": 0.0015077033,
        "meta_mean_motion_dot": 3.361e-05,
        "meta_mean_motion_ddot": 0,
        "tle_line1": "1 30886U 99025AXY 25352.43156568  .00003361  00000+0  15077-2 0  9999",
        "tle_line2": "2 30886  99.2096 245.6653 0036443  18.9046 341.3475 14.22825786964776"
      },
      "geometry": {
        "type": "Point",
        "coordinates": [
          72.75796019556819,
          33.257017752760156
        ]
      }
    },
    {
      "type": "Feature",
      "properties": {
        "norad_id": 30887,
        "name": "FENGYUN 1C DEB",
        "group": "fengyun-1c-debris",
        "lat": -77.61051248527167,
        "lon": 91.22944859271449,
        "alt_km": 565.7245453677888,
        "timestamp": "2025-12-19T08:58:49.617472+00:00",
        "meta_object_name": "FENGYUN 1C DEB",
        "meta_object_id": "1999-025AXZ",
        "meta_epoch": "2025-12-18T10:04:28.009632",
        "meta_mean_motion": 14.44854306,
        "meta_eccentricity": 0.02635794,
        "meta_inclination": 98.369,
        "meta_ra_of_asc_node": 48.2105,
        "meta_arg_of_pericenter": 270.5036,
        "meta_mean_anomaly": 86.5961,
        "meta_ephemeris_type": 0,
        "meta_classification_type": "U",
        "meta_norad_cat_id": 30887,
        "meta_element_set_no": 999,
        "meta_rev_at_epoch": 98210,
        "meta_bstar": 0.00057061103,
        "meta_mean_motion_dot": 2.987e-05,
        "meta_mean_motion_ddot": 0,
        "tle_line1": "1 30887U 99025AXZ 25352.41976863  .00002987  00000+0  57061-3 0  9999",
        "tle_line2": "2 30887  98.3690  48.2105 0263579 270.5036  86.5961 14.44854306982102"
      },
      "geometry": {
        "type": "Point",
        "coordinates": [
          91.22944859271449,
          -77.61051248527167
        ]
      }
    },
    {
      "type": "Feature",
      "properties": {
        "norad_id": 30888,
        "name": "FENGYUN 1C DEB",
        "group": "fengyun-1c-debris",
        "lat": -9.844819663807336,
        "lon": 151.88110634732865,
        "alt_km": 560.0824723816704,
        "timestamp": "2025-12-19T08:58:49.617490+00:00",
        "meta_object_name": "FENGYUN 1C DEB",
        "meta_object_id": "1999-025AYA",
        "meta_epoch": "2025-12-18T09:38:13.634016",
        "meta_mean_motion": 14.94006722,
        "meta_eccentricity": 0.00833079,
        "meta_inclination": 99.4826,
        "meta_ra_of_asc_node": 332.3708,
        "meta_arg_of_pericenter": 133.0844,
        "meta_mean_anomaly": 227.7382,
        "meta_ephemeris_type": 0,
        "meta_classification_type": "U",
        "meta_norad_cat_id": 30888,
        "meta_element_set_no": 999,
        "meta_rev_at_epoch": 1,
        "meta_bstar": 0.00081462248,
        "meta_mean_motion_dot": 9.226e-05,
        "meta_mean_motion_ddot": 0,
        "tle_line1": "1 30888U 99025AYA 25352.40154669  .00009226  00000+0  81462-3 0  9996",
        "tle_line2": "2 30888  99.4826 332.3708 0083307 133.0844 227.7382 14.94006722    14"
      },
      "geometry": {
        "type": "Point",
        "coordinates": [
          151.88110634732865,
          -9.844819663807336
        ]
      }
    },
    {
      "type": "Feature",
      "properties": {
        "norad_id": 30891,
        "name": "FENGYUN 1C DEB",
        "group": "fengyun-1c-debris",
        "lat": 14.46596778059909,
        "lon": -136.92029912771252,
        "alt_km": 834.0663702740176,
        "timestamp": "2025-12-19T08:58:49.617509+00:00",
        "meta_object_name": "FENGYUN 1C DEB",
        "meta_object_id": "1999-025AYD",
        "meta_epoch": "2025-12-18T10:04:15.461760",
        "meta_mean_motion": 14.05881966,
        "meta_eccentricity": 0.00556319,
        "meta_inclination": 98.7845,
        "meta_ra_of_asc_node": 39.8679,
        "meta_arg_of_pericenter": 171.7919,
        "meta_mean_anomaly": 204.9695,
        "meta_ephemeris_type": 0,
        "meta_classification_type": "U",
        "meta_norad_cat_id": 30891,
        "meta_element_set_no": 999,
        "meta_rev_at_epoch": 96062,
        "meta_bstar": 0.00078272201,
        "meta_mean_motion_dot": 1.256e-05,
        "meta_mean_motion_ddot": 0,
        "tle_line1": "1 30891U 99025AYD 25352.41962340  .00001256  00000+0  78272-3 0  9994",
        "tle_line2": "2 30891  98.7845  39.8679 0055631 171.7919 204.9695 14.05881966960627"
      },
      "geometry": {
        "type": "Point",
        "coordinates": [
          -136.92029912771252,
          14.46596778059909
        ]
      }
    },
    {
      "type": "Feature",
      "properties": {
        "norad_id": 30892,
        "name": "FENGYUN 1C DEB",
        "group": "fengyun-1c-debris",
        "lat": 27.456654195633345,
        "lon": -67.93470520415798,
        "alt_km": 849.3872240305118,
        "timestamp": "2025-12-19T08:58:49.617527+00:00",
        "meta_object_name": "FENGYUN 1C DEB",
        "meta_object_id": "1999-025AYE",
        "meta_epoch": "2025-12-13T14:04:34.549536",
        "meta_mean_motion": 14.18924802,
        "meta_eccentricity": 0.00379168,
        "meta_inclination": 99.663,
        "meta_ra_of_asc_node": 290.842,
        "meta_arg_of_pericenter": 186.6804,
        "meta_mean_anomaly": 173.3868,
        "meta_ephemeris_type": 0,
        "meta_classification_type": "U",
        "meta_norad_cat_id": 30892,
        "meta_element_set_no": 999,
        "meta_rev_at_epoch": 64315,
        "meta_bstar": 0.00057005886,
        "meta_mean_motion_dot": 1.145e-05,
        "meta_mean_motion_ddot": 0,
        "tle_line1": "1 30892U 99025AYE 25347.58651099  .00001145  00000+0  57006-3 0  9992",
        "tle_line2": "2 30892  99.6630 290.8420 0037916 186.6804 173.3868 14.18924802643155"
      },
      "geometry": {
        "type": "Point",
        "coordinates": [
          -67.93470520415798,
          27.456654195633345
        ]
      }
    }
  ]
}